APRIZESAT 2             
1 28366U 04025A   26094.46023265  .00000418  00000+0  14208-3 0  9995
2 28366  98.0948 264.6396 0106818 112.4543 248.8000 14.38008427141044
SAUDICOMSAT 1           
1 28369U 04025D   26095.28106318  .00000578  00000+0  14358-3 0  9993
2 28369  98.5804 103.4388 0031035 246.0275 113.7671 14.55418781153525
SAUDICOMSAT 2           
1 28370U 04025E   26094.97728671  .00000471  00000+0  13186-3 0  9992
2 28370  98.6678 105.1454 0056576 120.6873 239.9912 14.49932602149494
APRIZESAT 1             
1 28372U 04025G   26095.30619796  .00000485  00000+0  13144-3 0  9998
2 28372  98.6339 104.0380 0044952  18.3559 341.9245 14.51738335151334
NANOSAT-1               
1 28493U 04049B   26095.15616703  .00002044  00000+0  27735-3 0  9990
2 28493  98.2153 230.0864 0004559 152.5083 207.6370 14.80008923144645
SAUDICOMSAT 7           
1 31119U 07012C   26094.88047641  .00001127  00000+0  21016-3 0  9997
2 31119  98.3722  67.5412 0056999  66.7069 294.0119 14.66018798 11698
SAUDICOMSAT 6           
1 31121U 07012E   26094.81675574  .00000886  00000+0  17889-3 0  9999
2 31121  98.4035  61.0042 0071479 194.2880 165.6300 14.62471721  9467
SAUDICOMSAT 5           
1 31124U 07012H   26094.81934553  .00001532  00000+0  27167-3 0  9996
2 31124  98.3435  68.2401 0047461 358.1428   1.9592 14.68065031 12833
SAUDICOMSAT 3           
1 31125U 07012J   26095.17837483  .00001430  00000+0  24157-3 0  9994
2 31125  98.3093  69.1638 0037897 283.4620  76.2363 14.70595832 14093
SAUDICOMSAT 4           
1 31127U 07012L   26095.18406435  .00000972  00000+0  18795-3 0  9997
2 31127  98.3927  66.2987 0064508 125.7844 234.9378 14.64419799 10603
APRIZESAT 4             
1 35684U 09041D   26095.15819271  .00001361  00000+0  16877-3 0  9998
2 35684  98.1445 169.0207 0043012 196.7975 163.1816 14.83767003900530
APRIZESAT 3             
1 35686U 09041F   26095.13188980  .00002182  00000+0  19340-3 0  9994
2 35686  98.1950 244.9090 0061140 308.9068  50.6709 14.96000387905454
S-NET D                 
1 43186U 18014G   26095.27795152  .00008225  00000+0  43139-3 0  9995
2 43186  97.5412   0.5433 0006580 271.9571  88.0908 15.15997585447719
S-NET B                 
1 43187U 18014H   26095.28799058  .00008114  00000+0  42593-3 0  9996
2 43187  97.5417   0.5375 0007250 265.9521  94.0883 15.15968096447717
S-NET A                 
1 43188U 18014J   26095.27717255  .00008231  00000+0  43161-3 0  9997
2 43188  97.5430   0.7222 0007029 266.6546  93.3883 15.16004603447713
S-NET C                 
1 43189U 18014K   26095.29146325  .00008054  00000+0  42284-3 0  9992
2 43189  97.5442   0.7998 0008519 258.0735 101.9542 15.15960440446263
SALSAT                  
1 46495U 20068K   26095.25293326  .00010667  00000+0  38421-3 0  9998
2 46495  97.8868  93.9405 0009584 187.7921 172.3170 15.28731219304217
