[{"OBJECT_NAME":"APRIZESAT 2","OBJECT_ID":"2004-025A","EPOCH":"2026-04-04T11:02:44.100960","MEAN_MOTION":14.38008427,"ECCENTRICITY":0.01068183,"INCLINATION":98.0948,"RA_OF_ASC_NODE":264.6396,"ARG_OF_PERICENTER":112.4543,"MEAN_ANOMALY":248.8,"EPHEMERIS_TYPE":0,"CLASSIFICATION_TYPE":"U","NORAD_CAT_ID":28366,"ELEMENT_SET_NO":999,"REV_AT_EPOCH":14104,"BSTAR":0.00014207855,"MEAN_MOTION_DOT":4.18e-6,"MEAN_MOTION_DDOT":0},{"OBJECT_NAME":"SAUDICOMSAT 1","OBJECT_ID":"2004-025D","EPOCH":"2026-04-05T06:44:43.858752","MEAN_MOTION":14.55418781,"ECCENTRICITY":0.00310351,"INCLINATION":98.5804,"RA_OF_ASC_NODE":103.4388,"ARG_OF_PERICENTER":246.0275,"MEAN_ANOMALY":113.7671,"EPHEMERIS_TYPE":0,"CLASSIFICATION_TYPE":"U","NORAD_CAT_ID":28369,"ELEMENT_SET_NO":999,"REV_AT_EPOCH":15352,"BSTAR":0.00014357677,"MEAN_MOTION_DOT":5.78e-6,"MEAN_MOTION_DDOT":0},{"OBJECT_NAME":"SAUDICOMSAT 2","OBJECT_ID":"2004-025E","EPOCH":"2026-04-04T23:27:17.571744","MEAN_MOTION":14.49932602,"ECCENTRICITY":0.00565761,"INCLINATION":98.6678,"RA_OF_ASC_NODE":105.1454,"ARG_OF_PERICENTER":120.6873,"MEAN_ANOMALY":239.9912,"EPHEMERIS_TYPE":0,"CLASSIFICATION_TYPE":"U","NORAD_CAT_ID":28370,"ELEMENT_SET_NO":999,"REV_AT_EPOCH":14949,"BSTAR":0.00013186009,"MEAN_MOTION_DOT":4.71e-6,"MEAN_MOTION_DDOT":0},{"OBJECT_NAME":"APRIZESAT 1","OBJECT_ID":"2004-025G","EPOCH":"2026-04-05T07:20:55.503744","MEAN_MOTION":14.51738335,"ECCENTRICITY":0.00449523,"INCLINATION":98.6339,"RA_OF_ASC_NODE":104.038,"ARG_OF_PERICENTER":18.3559,"MEAN_ANOMALY":341.9245,"EPHEMERIS_TYPE":0,"CLASSIFICATION_TYPE":"U","NORAD_CAT_ID":28372,"ELEMENT_SET_NO":999,"REV_AT_EPOCH":15133,"BSTAR":0.00013144012,"MEAN_MOTION_DOT":4.85e-6,"MEAN_MOTION_DDOT":0},{"OBJECT_NAME":"NANOSAT-1","OBJECT_ID":"2004-049B","EPOCH":"2026-04-05T03:44:52.831392","MEAN_MOTION":14.80008923,"ECCENTRICITY":0.00045597,"INCLINATION":98.2153,"RA_OF_ASC_NODE":230.0864,"ARG_OF_PERICENTER":152.5083,"MEAN_ANOMALY":207.637,"EPHEMERIS_TYPE":0,"CLASSIFICATION_TYPE":"U","NORAD_CAT_ID":28493,"ELEMENT_SET_NO":999,"REV_AT_EPOCH":14464,"BSTAR":0.00027734646,"MEAN_MOTION_DOT":2.044e-5,"MEAN_MOTION_DDOT":0},{"OBJECT_NAME":"SAUDICOMSAT 7","OBJECT_ID":"2007-012C","EPOCH":"2026-04-04T21:07:53.161824","MEAN_MOTION":14.66018798,"ECCENTRICITY":0.00569995,"INCLINATION":98.3722,"RA_OF_ASC_NODE":67.5412,"ARG_OF_PERICENTER":66.7069,"MEAN_ANOMALY":294.0119,"EPHEMERIS_TYPE":0,"CLASSIFICATION_TYPE":"U","NORAD_CAT_ID":31119,"ELEMENT_SET_NO":999,"REV_AT_EPOCH":1169,"BSTAR":0.00021015943,"MEAN_MOTION_DOT":1.127e-5,"MEAN_MOTION_DDOT":0},{"OBJECT_NAME":"SAUDICOMSAT 6","OBJECT_ID":"2007-012E","EPOCH":"2026-04-04T19:36:07.695936","MEAN_MOTION":14.62471721,"ECCENTRICITY":0.00714793,"INCLINATION":98.4035,"RA_OF_ASC_NODE":61.0042,"ARG_OF_PERICENTER":194.288,"MEAN_ANOMALY":165.63,"EPHEMERIS_TYPE":0,"CLASSIFICATION_TYPE":"U","NORAD_CAT_ID":31121,"ELEMENT_SET_NO":999,"REV_AT_EPOCH":946,"BSTAR":0.00017888719,"MEAN_MOTION_DOT":8.86e-6,"MEAN_MOTION_DDOT":0},{"OBJECT_NAME":"SAUDICOMSAT 5","OBJECT_ID":"2007-012H","EPOCH":"2026-04-04T19:39:51.453792","MEAN_MOTION":14.68065031,"ECCENTRICITY":0.00474611,"INCLINATION":98.3435,"RA_OF_ASC_NODE":68.2401,"ARG_OF_PERICENTER":358.1428,"MEAN_ANOMALY":1.9592,"EPHEMERIS_TYPE":0,"CLASSIFICATION_TYPE":"U","NORAD_CAT_ID":31124,"ELEMENT_SET_NO":999,"REV_AT_EPOCH":1283,"BSTAR":0.00027166588,"MEAN_MOTION_DOT":1.532e-5,"MEAN_MOTION_DDOT":0},{"OBJECT_NAME":"SAUDICOMSAT 3","OBJECT_ID":"2007-012J","EPOCH":"2026-04-05T04:16:51.585312","MEAN_MOTION":14.70595832,"ECCENTRICITY":0.00378974,"INCLINATION":98.3093,"RA_OF_ASC_NODE":69.1638,"ARG_OF_PERICENTER":283.462,"MEAN_ANOMALY":76.2363,"EPHEMERIS_TYPE":0,"CLASSIFICATION_TYPE":"U","NORAD_CAT_ID":31125,"ELEMENT_SET_NO":999,"REV_AT_EPOCH":1409,"BSTAR":0.00024157384,"MEAN_MOTION_DOT":1.43e-5,"MEAN_MOTION_DDOT":0},{"OBJECT_NAME":"SAUDICOMSAT 4","OBJECT_ID":"2007-012L","EPOCH":"2026-04-05T04:25:03.159840","MEAN_MOTION":14.64419799,"ECCENTRICITY":0.00645084,"INCLINATION":98.3927,"RA_OF_ASC_NODE":66.2987,"ARG_OF_PERICENTER":125.7844,"MEAN_ANOMALY":234.9378,"EPHEMERIS_TYPE":0,"CLASSIFICATION_TYPE":"U","NORAD_CAT_ID":31127,"ELEMENT_SET_NO":999,"REV_AT_EPOCH":1060,"BSTAR":0.00018795367,"MEAN_MOTION_DOT":9.72e-6,"MEAN_MOTION_DDOT":0},{"OBJECT_NAME":"APRIZESAT 4","OBJECT_ID":"2009-041D","EPOCH":"2026-04-05T03:47:47.850144","MEAN_MOTION":14.83767003,"ECCENTRICITY":0.00430121,"INCLINATION":98.1445,"RA_OF_ASC_NODE":169.0207,"ARG_OF_PERICENTER":196.7975,"MEAN_ANOMALY":163.1816,"EPHEMERIS_TYPE":0,"CLASSIFICATION_TYPE":"U","NORAD_CAT_ID":35684,"ELEMENT_SET_NO":999,"REV_AT_EPOCH":90053,"BSTAR":0.00016876508,"MEAN_MOTION_DOT":1.361e-5,"MEAN_MOTION_DDOT":0},{"OBJECT_NAME":"APRIZESAT 3","OBJECT_ID":"2009-041F","EPOCH":"2026-04-05T03:09:55.278720","MEAN_MOTION":14.96000387,"ECCENTRICITY":0.00611409,"INCLINATION":98.195,"RA_OF_ASC_NODE":244.909,"ARG_OF_PERICENTER":308.9068,"MEAN_ANOMALY":50.6709,"EPHEMERIS_TYPE":0,"CLASSIFICATION_TYPE":"U","NORAD_CAT_ID":35686,"ELEMENT_SET_NO":999,"REV_AT_EPOCH":90545,"BSTAR":0.00019339605,"MEAN_MOTION_DOT":2.182e-5,"MEAN_MOTION_DDOT":0},{"OBJECT_NAME":"S-NET D","OBJECT_ID":"2018-014G","EPOCH":"2026-04-05T06:40:15.011328","MEAN_MOTION":15.15997585,"ECCENTRICITY":0.00065801,"INCLINATION":97.5412,"RA_OF_ASC_NODE":0.5433,"ARG_OF_PERICENTER":271.9571,"MEAN_ANOMALY":88.0908,"EPHEMERIS_TYPE":0,"CLASSIFICATION_TYPE":"U","NORAD_CAT_ID":43186,"ELEMENT_SET_NO":999,"REV_AT_EPOCH":44771,"BSTAR":0.00043138886,"MEAN_MOTION_DOT":8.225e-5,"MEAN_MOTION_DDOT":0},{"OBJECT_NAME":"S-NET B","OBJECT_ID":"2018-014H","EPOCH":"2026-04-05T06:54:42.386112","MEAN_MOTION":15.15968096,"ECCENTRICITY":0.00072504,"INCLINATION":97.5417,"RA_OF_ASC_NODE":0.5375,"ARG_OF_PERICENTER":265.9521,"MEAN_ANOMALY":94.0883,"EPHEMERIS_TYPE":0,"CLASSIFICATION_TYPE":"U","NORAD_CAT_ID":43187,"ELEMENT_SET_NO":999,"REV_AT_EPOCH":44771,"BSTAR":0.00042593484,"MEAN_MOTION_DOT":8.114e-5,"MEAN_MOTION_DDOT":0},{"OBJECT_NAME":"S-NET A","OBJECT_ID":"2018-014J","EPOCH":"2026-04-05T06:39:07.708320","MEAN_MOTION":15.16004603,"ECCENTRICITY":0.00070292,"INCLINATION":97.543,"RA_OF_ASC_NODE":0.7222,"ARG_OF_PERICENTER":266.6546,"MEAN_ANOMALY":93.3883,"EPHEMERIS_TYPE":0,"CLASSIFICATION_TYPE":"U","NORAD_CAT_ID":43188,"ELEMENT_SET_NO":999,"REV_AT_EPOCH":44771,"BSTAR":0.00043160698,"MEAN_MOTION_DOT":8.231e-5,"MEAN_MOTION_DDOT":0},{"OBJECT_NAME":"S-NET C","OBJECT_ID":"2018-014K","EPOCH":"2026-04-05T06:59:42.424800","MEAN_MOTION":15.1596044,"ECCENTRICITY":0.00085194,"INCLINATION":97.5442,"RA_OF_ASC_NODE":0.7998,"ARG_OF_PERICENTER":258.0735,"MEAN_ANOMALY":101.9542,"EPHEMERIS_TYPE":0,"CLASSIFICATION_TYPE":"U","NORAD_CAT_ID":43189,"ELEMENT_SET_NO":999,"REV_AT_EPOCH":44626,"BSTAR":0.00042284101,"MEAN_MOTION_DOT":8.054e-5,"MEAN_MOTION_DDOT":0},{"OBJECT_NAME":"SALSAT","OBJECT_ID":"2020-068K","EPOCH":"2026-04-05T06:04:13.433664","MEAN_MOTION":15.28731219,"ECCENTRICITY":0.00095847,"INCLINATION":97.8868,"RA_OF_ASC_NODE":93.9405,"ARG_OF_PERICENTER":187.7921,"MEAN_ANOMALY":172.317,"EPHEMERIS_TYPE":0,"CLASSIFICATION_TYPE":"U","NORAD_CAT_ID":46495,"ELEMENT_SET_NO":999,"REV_AT_EPOCH":30421,"BSTAR":0.00038420903,"MEAN_MOTION_DOT":0.00010667,"MEAN_MOTION_DDOT":0}]
